[{"OBJECT_NAME":"STARLINK-32288","OBJECT_ID":"2024-155V","EPOCH":"2026-03-09T11:14:10.518720","MEAN_MOTION":15.30190541,"ECCENTRICITY":0.00011797,"INCLINATION":53.1616,"RA_OF_ASC_NODE":130.9289,"ARG_OF_PERICENTER":89.7902,"MEAN_ANOMALY":270.3234,"EPHEMERIS_TYPE":0,"CLASSIFICATION_TYPE":"U","NORAD_CAT_ID":60943,"ELEMENT_SET_NO":999,"REV_AT_EPOCH":8625,"BSTAR":1.2141743e-5,"MEAN_MOTION_DOT":0,"MEAN_MOTION_DDOT":0},{"OBJECT_NAME":"TEVEL2-3","OBJECT_ID":"2025-052J","EPOCH":"2026-03-09T15:29:22.754400","MEAN_MOTION":15.30377031,"ECCENTRICITY":0.0004761,"INCLINATION":97.3994,"RA_OF_ASC_NODE":324.7775,"ARG_OF_PERICENTER":105.7353,"MEAN_ANOMALY":254.4413,"EPHEMERIS_TYPE":0,"CLASSIFICATION_TYPE":"U","NORAD_CAT_ID":63218,"ELEMENT_SET_NO":999,"REV_AT_EPOCH":5485,"BSTAR":0.00069446,"MEAN_MOTION_DOT":0.00020365,"MEAN_MOTION_DDOT":0}]
